RADUGA 18 [-]           
1 16497U 86007A   22298.56207951  .00000013  00000+0  00000+0 0  9998
2 16497  12.6801 330.6678 0076144 167.6707 356.8538  0.98810884132714
RADUGA 19 [-]           
1 17046U 86082A   22298.55539876 -.00000211  00000+0  00000+0 0  9996
2 17046  13.1161 334.6093 0013864 153.9734 243.2919  0.98461862129810
RADUGA 20 [-]           
1 17611U 87028A   22297.93181925 -.00000142  00000+0  00000+0 0  9997
2 17611  15.1367 338.1269 0030847 141.0898 226.9151  0.95962129125542
RADUGA 21 [-]           
1 18631U 87100A   22298.33562840  .00000114  00000+0  00000+0 0  9993
2 18631  13.2076 335.4341 0003855 139.6985 249.7363  1.00313811127748
RADUGA 22 [-]           
1 19596U 88095A   22298.73554062 -.00000362  00000+0  00000+0 0  9995
2 19596  13.1987 339.7428 0007964 145.3542 289.3795  1.00197592108317
RADUGA 23 [-]           
1 19928U 89030A   22298.73639314  .00000061  00000+0  00000+0 0  9993
2 19928  13.3511 341.5644 0022532 166.4711 205.5220  1.00353165121501
RADUGA-1 1 [-]          
1 20083U 89048A   22298.85598105  .00000012  00000+0  00000+0 0  9997
2 20083  14.1102 344.6350 0022765 118.4879 321.3249  0.98706586118147
RADUGA 24 [-]           
1 20367U 89098A   22298.73604434  .00000087  00000+0  00000+0 0  9999
2 20367  13.9306 343.8162 0002473 149.9041 218.0767  1.00228111119696
RADUGA 25 [-]           
1 20499U 90016A   22299.12115373 -.00000210  00000+0  00000+0 0  9999
2 20499  13.7009 344.4755 0005924 150.9928 218.6534  1.00172058119613
RADUGA 26 [-]           
1 21016U 90112A   22298.85023133 -.00000106  00000+0  00000+0 0  9997
2 21016  14.0231 347.7319 0007416 100.0759 327.0020  1.00322383116922
RADUGA-1 2 [-]          
1 21038U 90116A   22298.73560833  .00000091  00000+0  00000+0 0  9997
2 21038  14.0613 347.8046 0008853 107.6673 253.8526  1.00291756116579
RADUGA 27 [-]           
1 21132U 91014A   22297.32202264  .00000113  00000+0  00000+0 0  9990
2 21132  14.5715 347.3419 0003873 114.7035  68.2418  1.00303593115951
RADUGA 28 [-]           
1 21821U 91087A   22298.85598088 -.00000158  00000+0  00000+0 0  9996
2 21821  14.3451 351.0725 0008117 132.7482 301.7302  1.00184015112988
RADUGA 29 [-]           
1 22557U 93013A   22298.73578273  .00000078  00000+0  00000+0 0  9995
2 22557  14.5620 355.2475 0007615 118.9831 235.5001  1.00371780108330
RADUGA 30 [-]           
1 22836U 93062A   22298.84829491 -.00000076  00000+0  00000+0 0  9991
2 22836  14.6069 357.2242 0000665  12.2493  42.7992  1.00259972 32667
RADUGA-1 3 [-]          
1 22981U 94008A   22298.81965469 -.00000233  00000+0  00000+0 0  9991
2 22981  14.6875 358.3728 0004290 120.4093 301.0295  1.00226578105170
RADUGA 31 [-]           
1 23010U 94012A   22298.84740362 -.00000074  00000+0  00000+0 0  9999
2 23010  14.6575 358.3707 0005884 103.5477 308.0218  1.00339444105018
RADUGA 32 [-]           
1 23448U 94087A   22298.85023134 -.00000085  00000+0  00000+0 0  9990
2 23448  14.6464   1.0867 0005580 197.0346 215.8012  1.00261438119542
RADUGA-1 4 [-]          
1 25642U 99010A   22297.90177337  .00000108  00000+0  00000+0 0  9994
2 25642  15.2426  12.6527 0002381 222.9499 168.2610  1.00326563 86605
RADUGA-1 5 [-]          
1 26477U 00049A   22297.89822707  .00000110  00000+0  00000+0 0  9994
2 26477  13.2026  17.5761 0005272  75.3727 311.0340  1.00303316 81071
RADUGA-1 6 [-]          
1 26936U 01045A   22299.01246966 -.00000157  00000+0  00000+0 0  9996
2 26936  13.3854  23.9042 0016960 165.4802 209.5901  0.97745842 75576
RADUGA-1 7 [-]          
1 28194U 04010A   22298.79182554 -.00000358  00000+0  00000+0 0  9998
2 28194  12.1193  30.7206 0002531 169.6836 235.9478  1.00211805 68089
RADUGA-1M 1 [-]         
1 32373U 07058A   22298.75374604 -.00000305  00000+0  00000+0 0  9994
2 32373   7.1822  63.1285 0001918  51.0827 332.3946  0.99400473 39173
RADUGA-1 8 [-]          
1 34264U 09010A   22298.42689378 -.00000018  00000+0  00000+0 0  9997
2 34264   9.4804  53.0988 0013561   6.4962  22.6075  0.99816619 49893
RADUGA-1M 2 [+]         
1 36358U 10002A   22298.80420639 -.00000171  00000+0  00000+0 0  9991
2 36358   0.1725 102.4670 0002043 189.0840 117.1955  1.00271075 36743
RADUGA-1M 3 [+]         
1 39375U 13062A   22298.90257775  .00000170  00000+0  00000+0 0  9990
2 39375   2.5594  88.2064 0001637 120.9507 185.0415  1.00271989 32784
SCD 1                   
1 22490U 93009B   22298.92606981  .00000391  00000+0  58077-4 0  9995
2 22490  24.9684 132.1305 0043061 113.6282 356.0109 14.44740072568842
TECHSAT 1B (GO-32)      
1 25397U 98043D   22298.86061618  .00000054  00000+0  43280-4 0  9998
2 25397  98.8336 249.7586 0002372  89.1844 270.9605 14.23781390261987
SCD 2                   
1 25504U 98060A   22298.50584667  .00000354  00000+0  49528-4 0  9996
2 25504  24.9967 350.2255 0017425 114.7436  19.2055 14.44249682267665
LANDSAT 7               
1 25682U 99020A   22299.28108818  .00000171  00000+0  44972-4 0  9991
2 25682  97.9648 342.3216 0001635  80.7827 279.3581 14.59823559251651
DLR-TUBSAT              
1 25757U 99029B   22298.83135259  .00000086  00000+0  33109-4 0  9997
2 25757  98.5010 242.7396 0015531  81.4677 278.8277 14.51531656240196
TERRA                   
1 25994U 99068A   22299.19870745  .00000328  00000+0  79642-4 0  9990
2 25994  98.1246   8.0649 0002858  88.2467 293.4901 14.58890380215660
MAROC-TUBSAT            
1 27004U 01056D   22299.19747640 -.00000028  00000+0  20363-4 0  9995
2 27004  99.6466  79.7094 0019265 317.7574 215.7013 13.70162158 44043
AQUA                    
1 27424U 02022A   22299.16054920  .00000573  00000+0  13642-3 0  9999
2 27424  98.2588 239.8804 0001234 105.6909  18.4889 14.57458481 89265
IRS-P6 (RESOURCESAT-1)  
1 28051U 03046A   22299.12418223  .00000135  00000+0  62021-4 0  9999
2 28051  98.3925   6.4158 0058392 350.3289   9.6770 14.34228324989755
SHIYAN 1 (SY-1)         
1 28220U 04012A   22298.62477934  .00002156  00000+0  16666-3 0  9997
2 28220  97.9834 294.5323 0009922 257.7332 102.2781 15.02620097  9568
AURA                    
1 28376U 04026A   22298.83099612  .00000580  00000+0  13873-3 0  9996
2 28376  98.2208 240.3512 0001341  89.7749 270.3604 14.57129767972219
IRS-P5 (CARTOSAT-1)     
1 28649U 05017A   22299.13955627  .00000804  00000+0  10182-3 0  9990
2 28649  97.7037 355.2281 0002520 117.7194 242.4277 14.84365395946149
SINAH 1                 
1 28893U 05043D   22298.79414965  .00000267  00000+0  62759-4 0  9997
2 28893  98.1281  60.0445 0016264 122.1392 238.1390 14.61784416905999
EROS B                  
1 29079U 06014A   22299.15691252  .00014156  00000+0  60047-3 0  9999
2 29079  97.3778  57.9136 0004259 140.4758 319.3536 15.23211432916280
RESURS-DK 1             
1 29228U 06021A   22298.82826173  .00001064  00000+0  84962-4 0  9995
2 29228  69.9343 156.6874 0006872 240.2886 119.7592 15.03555246901975
ARIRANG-2 (KOMPSAT-2)   
1 29268U 06031A   22299.03295601  .00000327  00000+0  72913-4 0  9994
2 29268  97.9338 162.6948 0014210 328.8550  31.1815 14.62847326866982
LAPAN-TUBSAT            
1 29709U 07001A   22299.15428156  .00000509  00000+0  69917-4 0  9990
2 29709  97.9836 261.4439 0012423 184.9425 175.1673 14.82614843853877
CARTOSAT-2 (IRS-P7)     
1 29710U 07001B   22298.85721250  .00013811  00000+0  31317-3 0  9991
2 29710  97.8758  52.3073 0138596 319.1004  39.9901 15.33634056856191
HAIYANG-1B              
1 31113U 07010A   22299.01590939  .00000055  00000+0  36995-4 0  9992
2 31113  98.3125 318.4084 0013745 180.9625 179.1534 14.30342471811175
COSMO-SKYMED 1          
1 31598U 07023A   22299.03480646  .00000487  00000+0  67688-4 0  9990
2 31598  97.8886 120.8408 0001374  86.4138 273.7213 14.82148424832301
TERRASAR-X              
1 31698U 07026A   22299.05808337  .00000119  00000+0  88795-5 0  9992
2 31698  97.4464 304.8058 0001868  70.1853 345.7468 15.19151459851943
WORLDVIEW-1 (WV-1)      
1 32060U 07041A   22298.90286386  .00005017  00000+0  20655-3 0  9991
2 32060  97.3954  56.5285 0005114  18.6115 341.5309 15.24561333840341
YAOGAN 3                
1 32289U 07055A   22299.02453529  .00001519  00000+0  19972-3 0  9991
2 32289  97.9417 319.8694 0001892  91.4790 268.6663 14.81671739808373
COSMO-SKYMED 2          
1 32376U 07059A   22299.06857576  .00000359  00000+0  51665-4 0  9993
2 32376  97.8885 120.8744 0001343  89.4176 270.7200 14.82145932805055
RADARSAT-2              
1 32382U 07061A   22299.18519770  .00000099  00000+0  55306-4 0  9994
2 32382  98.5788 304.2326 0001151  99.3718 328.6968 14.29983312775980
CARTOSAT-2A             
1 32783U 08021A   22299.08965494  .00000935  00000+0  13433-3 0  9996
2 32783  97.9514 357.8988 0013948 105.6929 254.5804 14.78699072782328
HUANJING 1A (HJ-1A)     
1 33320U 08041A   22299.09126774  .00000425  00000+0  65588-4 0  9990
2 33320  97.6679 325.9625 0021268 163.1246 197.0678 14.77958665761685
HUANJING 1B (HJ-1B)     
1 33321U 08041B   22299.11043234  .00000956  00000+0  13821-3 0  9994
2 33321  97.6838 329.8082 0033984 182.9779 177.1246 14.77965765761680
GEOEYE 1                
1 33331U 08042A   22299.06319817  .00000489  00000+0  10165-3 0  9992
2 33331  98.1124  12.1223 0008276 226.2933 133.7583 14.64309500755482
THEOS                   
1 33396U 08049A   22299.19982995  .00000169  00000+0  10000-3 0  9990
2 33396  98.7363   5.3866 0000996 107.8909 271.7004 14.20017726729221
COSMO-SKYMED 3          
1 33412U 08054A   22299.02065428  .00002498  00000+0  25058-3 0  9996
2 33412  97.8893 122.9271 0018869  50.0526 310.2325 14.92125660757644
YAOGAN 4                
1 33446U 08061A   22298.81763776  .00000596  00000+0  90406-4 0  9995
2 33446  97.8269 235.0398 0017664  73.5498 286.7653 14.77533039748843
GOSAT (IBUKI)           
1 33492U 09002A   22298.91773911  .00000575  00000+0  10999-3 0  9990
2 33492  98.1272  50.4920 0000996 104.7743 255.3572 14.67523396736812
